{
    "links": {
        "self": "http://www.neowsapp.com/rest/v1/neo/54091659?api_key=iIulBulltgU6a56xZRHN4H3l9WmuAYTsLGpBGhQ2"
    },
    "id": "54091659",
    "neo_reference_id": "54091659",
    "name": "(2020 VV6)",
    "designation": "2020 VV6",
    "nasa_jpl_url": "http://ssd.jpl.nasa.gov/sbdb.cgi?sstr=54091659",
    "absolute_magnitude_h": 27.254,
    "estimated_diameter": {
        "kilometers": {
            "estimated_diameter_min": 0.0094135834,
            "estimated_diameter_max": 0.0210494125
        },
        "meters": {
            "estimated_diameter_min": 9.4135834433,
            "estimated_diameter_max": 21.0494124912
        },
        "miles": {
            "estimated_diameter_min": 0.0058493278,
            "estimated_diameter_max": 0.0130794945
        },
        "feet": {
            "estimated_diameter_min": 30.8844611042,
            "estimated_diameter_max": 69.0597544775
        }
    },
    "is_potentially_hazardous_asteroid": false,
    "close_approach_data": [
        {
            "close_approach_date": "2020-11-13",
            "close_approach_date_full": "2020-Nov-13 00:21",
            "epoch_date_close_approach": 1605226860000,
            "relative_velocity": {
                "kilometers_per_second": "17.699157745",
                "kilometers_per_hour": "63716.9678818625",
                "miles_per_hour": "39591.2459597051"
            },
            "miss_distance": {
                "astronomical": "0.0068636916",
                "lunar": "2.6699760324",
                "kilometers": "1026793.643696892",
                "miles": "638019.9848134296"
            },
            "orbiting_body": "Moon"
        },
        {
            "close_approach_date": "2020-11-13",
            "close_approach_date_full": "2020-Nov-13 05:25",
            "epoch_date_close_approach": 1605245100000,
            "relative_velocity": {
                "kilometers_per_second": "17.106161664",
                "kilometers_per_hour": "61582.1819905541",
                "miles_per_hour": "38264.7730262973"
            },
            "miss_distance": {
                "astronomical": "0.0069812729",
                "lunar": "2.7157151581",
                "kilometers": "1044383.555728723",
                "miles": "648949.8493254574"
            },
            "orbiting_body": "Earth"
        }
    ],
    "orbital_data": {
        "orbit_id": "1",
        "orbit_determination_date": "2020-11-20 22:42:04",
        "first_observation_date": "2020-11-15",
        "last_observation_date": "2020-11-16",
        "data_arc_in_days": 1,
        "observations_used": 11,
        "orbit_uncertainty": "9",
        "minimum_orbit_intersection": ".00224445",
        "jupiter_tisserand_invariant": "4.304",
        "epoch_osculation": "2459168.5",
        "eccentricity": ".5706173124687124",
        "semi_major_axis": "1.522894727539521",
        "inclination": "2.664367061696798",
        "ascending_node_longitude": "59.09258849206623",
        "orbital_period": "686.4410572095975",
        "perihelion_distance": ".6539046309381477",
        "perihelion_argument": "265.8396016976026",
        "aphelion_distance": "2.391884824140895",
        "perihelion_time": "2459116.479968240749",
        "mean_anomaly": "27.28160158347318",
        "mean_motion": ".5244441547004928",
        "equinox": "J2000",
        "orbit_class": {
            "orbit_class_type": "APO",
            "orbit_class_description": "Near-Earth asteroid orbits which cross the Earth’s orbit similar to that of 1862 Apollo",
            "orbit_class_range": "a (semi-major axis) > 1.0 AU; q (perihelion) < 1.017 AU"
        }
    },
    "is_sentry_object": false
}